OPS 6582 (TRANSIT 5B-5) 
1 00965U 64083D   25197.96022711  .00000027  00000+0  23844-4 0  9996
2 00965  90.0583 200.5587 0041542 175.4018 242.1868 13.56970485998146
LES-1                   
1 01002U 65008C   25197.86754407  .00000015  00000+0  93341-3 0  9995
2 01002  32.1422 119.0607 0015455 143.0977 217.0585  9.88354811183012
SOLRAD 7B               
1 01291U 65016D   25197.81418190 -.00000012  00000+0  30186-4 0  9992
2 01291  70.0770 229.2438 0022094 207.9387 152.0534 13.94917788 69933
SECOR 4 (EGRS 4)        
1 01315U 65027B   25197.96498907  .00000071  00000+0  23545-3 0  9995
2 01315  90.2415   8.0107 0031028 359.0533 154.8231 12.92658349843616
TIROS 10                
1 01430U 65051A   25197.85921097  .00000095  00000+0  42431-4 0  9991
2 01430  98.4718 314.3681 0055530   7.3388 352.8601 14.41425525147606
ALOUETTE 2              
1 01804U 65098A   25198.11375711  .00000213  00000+0  67745-4 0  9990
2 01804  79.7979 201.6022 1331525 191.6824 165.0281 12.27886346637744
OV3-3                   
1 02389U 66070A   25197.92671319  .00006204  00000+0  29297-3 0  9996
2 02389  81.3281 264.5248 1051409 301.2336  48.9883 13.35881638554051
SECOR 7 (EGRS 7)        
1 02411U 66077B   25196.67716889  .00000011  00000+0  47316-2 0  9993
2 02411  90.3371 273.5130 0012783  41.3819 318.7999  8.59615514848461
ERS 15                  
1 02412U 66077C   25197.63110142  .00000002  00000+0  00000+0 0  9997
2 02412  90.3376 273.3186 0007949  48.9626 311.1911  8.59078400361641
ISIS 1                  
1 03669U 69009A   25197.64864142  .00000079  00000+0  51588-4 0  9993
2 03669  88.4526 181.0333 1707426 205.6241 144.9618 11.30278026321868
SECOR 13 (EGRS 13)      
1 03891U 69037B   25197.62058951 -.00000036  00000+0  12128-4 0  9993
2 03891  99.6993  77.8348 0039485 356.0169  57.6434 13.42958795756712
ATS 5                   
1 04068U 69069A   25197.84401353 -.00000105  00000+0  00000+0 0  9995
2 04068   0.8119 253.7788 0004660  13.2581 334.1654  0.99495992131585
OPS 7613 (P/L 4)        
1 04237U 69082E   25197.97516275  .00000009  00000+0  44791-4 0  9994
2 04237  70.0153  99.9490 0021752 213.4377 227.3855 13.95923220839523
OPS 7613 (P/L 1)        
1 04256U 69082B   25197.79922548  .00000084  00000+0  94852-4 0  9995
2 04256  70.0111 325.4395 0018023 150.2239 209.9898 13.99067789843555
SHINSEI (MS-F2)         
1 05485U 71080A   25197.84499062  .00000032  00000+0  25088-4 0  9995
2 05485  32.0554 114.1448 0639639 341.7594  16.0999 12.74233807506467
PROSPERO (BLACK ARROW)  
1 05580U 71093A   25198.16786393  .00001156  00000+0  24286-3 0  9993
2 05580  82.0365 224.6381 0507256 107.0824 258.6540 14.00461558702707
OPS 7898 (P/L 2)        
1 05680U 71110C   25197.82204013 -.00000014  00000+0  38280-4 0  9993
2 05680  69.9913 334.9954 0009872 239.9840 120.0275 13.74720323303337
NOAA 2 (ITOS-D)         
1 06235U 72082A   25197.92147976 -.00000042  00000+0  30088-4 0  9993
2 06235 102.0210 207.5987 0004546  89.7999 331.1829 12.53202226412955
EXPLORER 50 (IMP-8)     
1 06893U 73078A   25196.57914163 -.00001058  00000+0  00000+0 0  9993
2 06893   9.0739 118.5325 1991774 108.5150   0.8671  0.08284795 11624
OSCAR 7 (AO-7)          
1 07530U 74089B   25197.98367436 -.00000048  00000+0 -86976-5 0  9997
2 07530 101.9938 202.6464 0012565  52.0436 334.3936 12.53690150318758
TIROS N                 
1 11060U 78096A   25197.92298681  .00000097  00000+0  66083-4 0  9999
2 11060  98.4857 228.6415 0011399 129.9891 230.2288 14.19206371631190
PHASE 3B (AO-10)        
1 14129U 83058B   25197.29017113  .00000012  00000+0  00000+0 0  9990
2 14129  26.5559 276.3708 6066609  22.2579 355.5999  2.05869179288576
HILAT                   
1 14154U 83063A   25198.20992007  .00000290  00000+0  89515-4 0  9991
2 14154  82.0250 112.4098 0038359 224.5585 288.9010 14.38364927199686
UOSAT 2 (UO-11)         
1 14781U 84021B   25197.88657705  .00000851  00000+0  95093-4 0  9999
2 14781  97.7566 163.5237 0007033 202.8562 157.2343 14.89470193207198
NOAA 9                  
1 15427U 84123A   25197.94459785  .00000071  00000+0  58856-4 0  9995
2 15427  99.1212 211.3648 0013987 216.0429 204.5643 14.16935452 95943
GEOSAT                  
1 15595U 85021A   25197.72142901  .00000063  00000+0  63504-4 0  9991
2 15595 108.0497 103.2689 0002239 282.9723  77.1168 14.39693864114485
EUTELSAT 1-F4 (ECS 4)   
1 18351U 87078B   25197.91995031  .00000028  00000+0  00000+0 0  9997
2 18351  14.0673 344.4714 0008832  47.4990 296.8572  0.98687029123444
PACSAT (AO-16)          
1 20439U 90005D   25197.94549453  .00000090  00000+0  49183-4 0  9996
2 20439  98.8871 220.0930 0011442 131.1151 294.5007 14.33783064853891
LUSAT (LO-19)           
1 20442U 90005G   25197.92649120  .00000073  00000+0  42879-4 0  9996
2 20442  98.8982 205.2077 0012688 107.6147 252.6423 14.33965659854341
IRS-1B                  
1 21688U 91061A   25197.92044573  .00000327  00000+0  26372-3 0  9994
2 21688  99.4002 192.6372 0024035 191.6949 225.1474 13.97799660621656
COSMOS 2197             
1 22034U 92042A   25198.17890356  .00000015  00000+0  24768-4 0  9998
2 22034  82.5930  83.0305 0012210 321.4575 195.2102 12.64237602523241
PEGASUS R/B             
1 22491U 93009C   25197.85539997  .00000843  00000+0  13722-3 0  9990
2 22491  24.9785  39.1008 0044700  92.0915 268.4715 14.57230887720655
EYESAT A (AO-27)        
1 22825U 93061C   25198.12010541  .00000053  00000+0  37573-4 0  9993
2 22825  98.7347 259.8593 0008485  11.0714 349.0654 14.30809267659358
ITAMSAT (IO-26)         
1 22826U 93061D   25197.77852524  .00000067  00000+0  42315-4 0  9994
2 22826  98.7294 259.4024 0008695 355.8107   4.3001 14.31223409659337
RADIO ROSTO (RS-15)     
1 23439U 94085A   25197.87092740 -.00000047  00000+0 -12951-3 0  9991
2 23439  64.8158 125.5019 0146264  67.1069 294.5220 11.27581613258093
JAS-2 (FO-29)           
1 24278U 96046B   25197.64546025 -.00000019  00000+0  19095-4 0  9992
2 24278  98.5709  86.6553 0348955 246.5060 109.9051 13.53250531427784
FORTE                   
1 24920U 97047A   25197.95535666  .00000112  00000+0  68511-4 0  9991
2 24920  69.9532  51.0896 0021650   8.5860 351.5628 14.27728380450835
NOAA 15                 
1 25338U 98030A   25198.18412852  .00000169  00000+0  87132-4 0  9997
2 25338  98.5338 222.4077 0009110 246.3796 113.6429 14.26997510413762
TECHSAT 1B (GO-32)      
1 25397U 98043D   25197.92353262  .00000038  00000+0  36573-4 0  9994
2 25397  98.9724 177.8262 0002373  95.8425 264.3023 14.24322367403605
ISS (ZARYA)             
1 25544U 98067A   25198.23696061  .00005914  00000+0  11182-3 0  9992
2 25544  51.6342 158.1162 0002274  87.0874 273.0375 15.49919983519826
ORSTED                  
1 25635U 99008B   25197.94707125  .00000235  00000+0  60137-4 0  9996
2 25635  96.4474 177.1757 0132679 181.1978 178.8924 14.51162049393338
LANDSAT 7               
1 25682U 99020A   25197.93387795  .00000310  00000+0  68528-4 0  9994
2 25682  97.8619 212.0053 0001799  87.1195 333.4834 14.63458594396808
ORBCOMM FM36            
1 25984U 99065E   25197.58095066  .00000578  00000+0  23542-3 0  9998
2 25984  45.0403 311.5935 0002656 128.6120 231.4967 14.38172305338653
DMSP 5D-3 F15 (USA 147) 
1 25991U 99067A   25197.93757395  .00000052  00000+0  48691-4 0  9997
2 25991  99.0371 226.5694 0008998 232.3876 198.9841 14.17391240323152
OPAL (OO-38)            
1 26063U 00004C   25197.56955269  .00000055  00000+0  37942-4 0  9990
2 26063 100.2097  67.4852 0035147 263.6165  96.1013 14.37787973335242
IMAGE                   
1 26113U 00017A   25197.09469872 -.00000581  00000+0 -95466-2 0  9997
2 26113  93.8867 310.3426 7649887 327.6096   2.8363  1.68660330155834
CLUSTER II-FM7 (SAMBA)  
1 26410U 00041A   25200.56452492  .00002932  00000+0  00000+0 0  9998
2 26410 145.0001  13.7364 8456270 229.0575 359.2927  0.44824483 30571
CLUSTER II-FM5 (RUMBA)  
1 26463U 00045A   25195.77806080  .00006200  00000+0  00000+0 0  9994
2 26463 150.7232  82.2182 9095467 301.3515   0.8611  0.42921326 18682
CLUSTER II-FM8 (TANGO)  
1 26464U 00045B   25200.18874060  .00002973  00000+0  00000+0 0  9993
2 26464 145.2715  14.1398 8459600 229.3309 359.3313  0.44417219 66488
MEGSAT-1                
1 26546U 00057B   25197.97476813  .00001824  00000+0  14922-3 0  9999
2 26546  64.5513  60.9343 0021193 310.8222  49.1055 15.02526330347328
PHASE 3D (AO-40)        
1 26609U 00072B   25197.68827252 -.00000327  00000+0  00000+0 0  9997
2 26609   9.6932  39.0075 7968342  76.3261 353.0889  1.25590656113293
ODIN                    
1 26702U 01007A   25198.17093079  .00030091  00000+0  70327-3 0  9990
2 26702  97.4412 222.3584 0002410 333.5723  26.5401 15.42121694337988
OMNI-M1                 
1 26857U 01026A   25195.36776878 -.00000041  00000+0  00000+0 0  9995
2 26857  44.9854 323.0172 0013267 328.5534  31.3998  3.92401300347998
PCSAT (NO-44)           
1 26931U 01043C   25197.94880200  .00000071  00000+0  57836-4 0  9994
2 26931  67.0510  31.2206 0006281 277.0067  83.0320 14.31748866242453
PROBA-1                 
1 26958U 01049B   25198.11751233  .00001726  00000+0  12078-3 0  9998
2 26958  97.9502 190.5869 0057559 173.1167 187.0862 15.05390491293237
SPOT 5                  
1 27421U 02021A   25198.16240501  .00000240  00000+0  61233-4 0  9999
2 27421  98.0335 246.0547 0129284 237.4593 121.4062 14.54324628214173
FENGYUN 1D              
1 27431U 02024B   25198.11459200  .00000049  00000+0  53098-4 0  9993
2 27431  99.0026 244.0885 0016477 104.4825 255.8174 14.10152670192321
SAUDISAT 1C (SO-50)     
1 27607U 02058C   25197.94490019  .00000785  00000+0  11504-3 0  9990
2 27607  64.5529  85.1903 0060388 325.9249  33.7985 14.81713467214767
CORIOLIS                
1 27640U 03001A   25197.90897711  .00000072  00000+0  54570-4 0  9992
2 27640  98.7126 204.9318 0015242  97.9186 262.3721 14.19800661166647
